[{"OBJECT_NAME":"BUGSAT-1 (TITA)","OBJECT_ID":"2014-033E","EPOCH":"2026-03-09T23:14:58.322976","MEAN_MOTION":15.14502987,"ECCENTRICITY":0.00292569,"INCLINATION":98.0428,"RA_OF_ASC_NODE":155.8085,"ARG_OF_PERICENTER":157.4521,"MEAN_ANOMALY":202.8002,"EPHEMERIS_TYPE":0,"CLASSIFICATION_TYPE":"U","NORAD_CAT_ID":40014,"ELEMENT_SET_NO":999,"REV_AT_EPOCH":64081,"BSTAR":0.00030961592,"MEAN_MOTION_DOT":5.686e-5,"MEAN_MOTION_DDOT":0},{"OBJECT_NAME":"STARLINK-5290","OBJECT_ID":"2022-141A","EPOCH":"2026-03-09T06:19:22.680480","MEAN_MOTION":15.08831092,"ECCENTRICITY":0.00013637,"INCLINATION":53.218,"RA_OF_ASC_NODE":15.9856,"ARG_OF_PERICENTER":99.258,"MEAN_ANOMALY":260.8566,"EPHEMERIS_TYPE":0,"CLASSIFICATION_TYPE":"U","NORAD_CAT_ID":54157,"ELEMENT_SET_NO":999,"REV_AT_EPOCH":18565,"BSTAR":0.00011846209,"MEAN_MOTION_DOT":1.597e-5,"MEAN_MOTION_DDOT":0}]
